NUSAT-1 (FRESCO)        
1 41557U 16033B   22071.87294782  .00010354  00000+0  33658-3 0  9994
2 41557  97.3852 169.6302 0011873   8.9934 130.4611 15.32026929322583
BEESAT-4                
1 41619U 16040W   22071.88800535  .00012302  00000+0  44867-3 0  9990
2 41619  97.2323 125.2299 0011629 100.6333 259.6218 15.28230903305963
CAS-2T & KS-1Q          
1 41847U 16066G   22071.72955457  .00001108  00000+0  17483-3 0  9994
2 41847  98.5630 136.4660 0365282 139.0179 223.9083 14.38408481280445
NAYIF-1 (EO-88)         
1 42017U 17008BX  22071.69465852  .00015470  00000+0  51400-3 0  9996
2 42017  97.2813 139.3993 0004610 220.7591 139.3306 15.31274556282253
ZHUHAI-1 02 (CAS-4B)    
1 42759U 17034B   22071.91200382  .00003507  00000+0  21898-3 0  9994
2 42759  43.0166 144.4962 0007890  32.5345 136.9809 15.11049034261749
ZHUHAI-1 01 (CAS-4A)    
1 42761U 17034D   22071.68287836  .00003714  00000+0  23054-3 0  9996
2 42761  43.0168 144.6174 0008235  33.0494 102.1266 15.11138183261719
MAX VALIER SAT          
1 42778U 17036P   22071.87180590  .00006953  00000+0  27901-3 0  9999
2 42778  97.2207 116.3401 0009809 313.6178  46.4246 15.25243856262173
RADFXSAT (FOX-1B)       
1 43017U 17073E   22071.68814871  .00003370  00000+0  25842-3 0  9994
2 43017  97.6865 329.8344 0252528 144.2044 217.6393 14.80512110232791
FOX-1D (AO-92)          
1 43137U 18004AC  22071.71970902  .00009565  00000+0  36007-3 0  9991
2 43137  97.3772 147.8653 0007755 354.9512   5.1648 15.27294436231577
DIWATA-2B               
1 43678U 18084H   22071.94693118  .00001128  00000+0  11713-3 0  9999
2 43678  97.9524 204.1910 0008507 241.3833 118.6488 14.91960373183468
ES'HAIL 2               
1 43700U 18090A   22071.85133366  .00000141  00000+0  00000+0 0  9993
2 43700   0.0189 194.0867 0002215 177.2461 131.3923  1.00270836 12065
FOX-1CLIFF (AO-95)      
1 43770U 18099N   22071.74877672  .00002857  00000+0  26021-3 0  9993
2 43770  97.6324 140.6020 0012945 236.1287 123.8703 14.95872539178550
ITASAT 1                
1 43786U 18099AE  22071.88776327  .00001859  00000+0  17014-3 0  9993
2 43786  97.6347 141.5988 0013733 228.0894 131.9157 14.96095255178618
JY1SAT (JO-97)          
1 43803U 18099AX  22071.73269777  .00003457  00000+0  30910-3 0  9999
2 43803  97.6300 141.1859 0013852 227.2542 132.7515 14.96454117178605
UWE-4                   
1 43880U 18111E   22071.73431454  .00003155  00000+0  27534-3 0  9995
2 43880  97.6740 339.7467 0010875 287.0946  72.9084 14.97503773175227
NEXUS (FO-99)           
1 43937U 19003F   22071.59930816  .00012197  00000+0  44332-3 0  9990
2 43937  97.1448 108.8275 0023175 136.8803 223.4257 15.28148006175170
PSAT2 (NO-104)          
1 44354U 19036R   22071.50660014  .00063238 -54130-5  68261-3 0  9990
2 44354  28.5250 124.3808 0270090 327.6492  30.7800 15.28299876149785
BRICSAT2 (NO-103)       
1 44355U 19036S   22071.90817782  .00204797  53656-5  90362-3 0  9996
2 44355  28.5214   8.0618 0122154 158.2783 202.3061 15.72543901150970
JAISAT-1                
1 44419U 19038F   22071.90031589  .00007455  00000+0  39486-3 0  9993
2 44419  97.6258  41.4382 0022200 104.6698 255.6997 15.15495106148422
DUCHIFAT-3              
1 44854U 19089C   22071.84739392  .00003365  00000+0  26961-3 0  9992
2 44854  36.9676 312.7200 0006592 163.7347 291.1042 15.00279873123414
CAS-6 (TO-108)          
1 44881U 19093C   22071.80378922  .00000504  00000+0  70794-4 0  9997
2 44881  97.8986 152.3878 0015960 136.6967 223.5497 14.81590966120461
RS-44 & BREEZE-KM R/B   
1 44909U 19096E   22071.87059592  .00000012  00000+0  41250-5 0  9997
2 44909  82.5188 294.4580 0217229 185.2970 174.5833 12.79712112103151
ORBITAL FACTORY 2 (OF-2)
1 45113U 19071C   22071.66500608  .00024171  00000+0  59558-3 0  9994
2 45113  51.6398 173.7687 0009315 185.8226 174.2652 15.40394792118435
HUSKYSAT-1 (HO-107)     
1 45119U 19071J   22071.69557001  .00022697  00000+0  56702-3 0  9991
2 45119  51.6394 173.2060 0009076 181.5007 178.5952 15.40016803118435
BY70-2                  
1 45857U 20042B   22071.82106352  .00005572  00000+0  77155-3 0  9992
2 45857  97.9609 149.6770 0011916  74.8216 285.4312 14.78365839 91178
SALSAT                  
1 46495U 20068K   22071.84242017  .00002702  00000+0  19971-3 0  9994
2 46495  97.7213  13.2061 0015444 242.4672 117.4985 15.03986071 79660
BY70-3                  
1 46839U 20079N   22071.87776650  .00016472  00000+0  44741-3 0  9998
2 46839  97.2096 145.5074 0005439 332.2371 156.0235 15.37636339 75384
RADFXSAT-2 (AO-109)     
1 47311U 21002C   22071.91962856  .00007306  00000+0  31372-3 0  9993
2 47311  60.6880   5.1428 0017209 198.3863 161.6604 15.23501132 63740
UVSQ-SAT                
1 47438U 21006AB  22071.91793383  .00005806  00000+0  31952-3 0  9991
2 47438  97.4505 132.9417 0011036 246.7395 113.2675 15.14381456 62665
DIY-1 (ARDUIQUBE)       
1 47963U 21022AH  22071.71334214  .00015221  00000+0  93082-3 0  9998
2 47963  97.5414 334.3939 0020317 103.9087 256.4404 15.10161770 52333
XW-3 (CAS-9)            
1 50466U 21131B   22071.90371086  .00000142  00000+0  61008-4 0  9990
2 50466  98.5869 149.1851 0005657  84.0284 276.1548 14.38448649 11035
